CSS (TIANHE)            
1 48274U 21035A   23184.43217981  .00022075  00000+0  27218-3 0  9997
2 48274  41.4750  57.2245 0007510 205.6558 154.3909 15.59633848124377
